{
    "links": {
        "self": "http://www.neowsapp.com/rest/v1/neo/3959232?api_key=iIulBulltgU6a56xZRHN4H3l9WmuAYTsLGpBGhQ2"
    },
    "id": "3959232",
    "neo_reference_id": "3959232",
    "name": "(2019 YM4)",
    "designation": "2019 YM4",
    "nasa_jpl_url": "http://ssd.jpl.nasa.gov/sbdb.cgi?sstr=3959232",
    "absolute_magnitude_h": 25.4,
    "estimated_diameter": {
        "kilometers": {
            "estimated_diameter_min": 0.022108281,
            "estimated_diameter_max": 0.0494356193
        },
        "meters": {
            "estimated_diameter_min": 22.1082810359,
            "estimated_diameter_max": 49.435619262
        },
        "miles": {
            "estimated_diameter_min": 0.0137374447,
            "estimated_diameter_max": 0.0307178602
        },
        "feet": {
            "estimated_diameter_min": 72.5337327539,
            "estimated_diameter_max": 162.1903570994
        }
    },
    "is_potentially_hazardous_asteroid": false,
    "close_approach_data": [
        {
            "close_approach_date": "2020-01-05",
            "close_approach_date_full": "2020-Jan-05 20:50",
            "epoch_date_close_approach": 1578257400000,
            "relative_velocity": {
                "kilometers_per_second": "6.7890751266",
                "kilometers_per_hour": "24440.6704556364",
                "miles_per_hour": "15186.4821506147"
            },
            "miss_distance": {
                "astronomical": "0.0981187991",
                "lunar": "38.1682128499",
                "kilometers": "14678363.352317917",
                "miles": "9120712.0540925746"
            },
            "orbiting_body": "Earth"
        }
    ],
    "orbital_data": {
        "orbit_id": "2",
        "orbit_determination_date": "2020-02-10 04:51:37",
        "first_observation_date": "2019-12-29",
        "last_observation_date": "2020-01-25",
        "data_arc_in_days": 27,
        "observations_used": 20,
        "orbit_uncertainty": "8",
        "minimum_orbit_intersection": ".0910325",
        "jupiter_tisserand_invariant": "5.015",
        "epoch_osculation": "2458861.5",
        "eccentricity": ".1759354270013679",
        "semi_major_axis": "1.282316363311506",
        "inclination": "11.65142393787809",
        "ascending_node_longitude": "96.51896111321014",
        "orbital_period": "530.3849634433057",
        "perihelion_distance": "1.056711486381455",
        "perihelion_argument": "31.10346362563242",
        "aphelion_distance": "1.507921240241557",
        "perihelion_time": "2458875.605955452392",
        "mean_anomaly": "350.4255506606119",
        "mean_motion": ".6787522739386284",
        "equinox": "J2000",
        "orbit_class": {
            "orbit_class_type": "AMO",
            "orbit_class_description": "Near-Earth asteroid orbits similar to that of 1221 Amor",
            "orbit_class_range": "1.017 AU < q (perihelion) < 1.3 AU"
        }
    },
    "is_sentry_object": false
}